start=new Date('2022-09-11T00:00:00.000Z').valueOf();
sats=[{"PERIOD":"95.437","BSTAR":"-0.00383470000000","CENTER_NAME":"EARTH","REV_AT_EPOCH":"130","TLE_LINE1":"1 52862U 22062AJ  22253.91667824 -.00060824  00000-0 -38347-2 0  9991","NORAD_CAT_ID":"52862","OBJECT_NAME":"STARLINK-4010","RA_OF_ASC_NODE":"351.2736","COUNTRY_CODE":"US","MEAN_ANOMALY":"77.1911","MEAN_MOTION":"15.08853114","PERIAPSIS":"538.734","FILE":"3567798","SEMIMAJOR_AXIS":"6917.840","EPOCH":"2022-09-10T22:00:00.999936","MEAN_ELEMENT_THEORY":"SGP4","RCS_SIZE":"LARGE","ECCENTRICITY":"0.00014040","EPHEMERIS_TYPE":"0","INCLINATION":"53.2162","MEAN_MOTION_DOT":"-0.00060824","OBJECT_TYPE":"PAYLOAD","DECAY_DATE":null,"APOAPSIS":"540.677","ELEMENT_SET_NO":"999","SITE":"AFETR","OBJECT_ID":"2022-062AJ","CLASSIFICATION_TYPE":"U","TLE_LINE2":"2 52862  53.2162 351.2736 0001404  68.1690  77.1911 15.08853114  1306","TIME_SYSTEM":"UTC","REF_FRAME":"TEME","LAUNCH_DATE":"2022-06-17","GP_ID":"212272048","ARG_OF_PERICENTER":"68.1690","MEAN_MOTION_DDOT":"0.0000000000000"},{"SITE":"AFETR","OBJECT_ID":"2022-062AK","CLASSIFICATION_TYPE":"U","REF_FRAME":"TEME","TIME_SYSTEM":"UTC","TLE_LINE2":"2 52863  53.2165 351.2732 0001682  52.7033 132.6279 15.08865556 13821","LAUNCH_DATE":"2022-06-17","MEAN_MOTION_DDOT":"0.0000000000000","GP_ID":"212242545","ARG_OF_PERICENTER":"52.7033","MEAN_MOTION_DOT":"-0.00052199","INCLINATION":"53.2165","OBJECT_TYPE":"PAYLOAD","DECAY_DATE":null,"ELEMENT_SET_NO":"999","APOAPSIS":"540.831","PERIAPSIS":"538.504","FILE":"3567584","EPOCH":"2022-09-10T22:00:00.999936","SEMIMAJOR_AXIS":"6917.802","RCS_SIZE":"LARGE","MEAN_ELEMENT_THEORY":"SGP4","ECCENTRICITY":"0.00016820","EPHEMERIS_TYPE":"0","PERIOD":"95.436","BSTAR":"-0.00328320000000","REV_AT_EPOCH":"1382","TLE_LINE1":"1 52863U 22062AK  22253.91667824 -.00052199  00000-0 -32832-2 0  9991","CENTER_NAME":"EARTH","NORAD_CAT_ID":"52863","COUNTRY_CODE":"US","MEAN_ANOMALY":"132.6279","RA_OF_ASC_NODE":"351.2732","OBJECT_NAME":"STARLINK-4270","MEAN_MOTION":"15.08865556"},{"EPHEMERIS_TYPE":"0","ECCENTRICITY":"0.00015890","MEAN_ELEMENT_THEORY":"SGP4","RCS_SIZE":"LARGE","SEMIMAJOR_AXIS":"6917.839","EPOCH":"2022-09-10T22:00:00.999936","FILE":"3567584","PERIAPSIS":"538.605","MEAN_MOTION":"15.08853401","OBJECT_NAME":"STARLINK-4267","RA_OF_ASC_NODE":"351.2728","COUNTRY_CODE":"US","MEAN_ANOMALY":"113.1881","NORAD_CAT_ID":"52864","CENTER_NAME":"EARTH","TLE_LINE1":"1 52864U 22062AL  22253.91667824 -.00052614  00000-0 -33108-2 0  9991","REV_AT_EPOCH":"1382","PERIOD":"95.437","BSTAR":"-0.00331080000000","GP_ID":"212242550","ARG_OF_PERICENTER":"52.1593","MEAN_MOTION_DDOT":"0.0000000000000","LAUNCH_DATE":"2022-06-17","TLE_LINE2":"2 52864  53.2161 351.2728 0001589  52.1593 113.1881 15.08853401 13823","TIME_SYSTEM":"UTC","REF_FRAME":"TEME","CLASSIFICATION_TYPE":"U","SITE":"AFETR","OBJECT_ID":"2022-062AL","APOAPSIS":"540.804","ELEMENT_SET_NO":"999","DECAY_DATE":null,"OBJECT_TYPE":"PAYLOAD","INCLINATION":"53.2161","MEAN_MOTION_DOT":"-0.00052614"},{"NORAD_CAT_ID":"52865","REV_AT_EPOCH":"1382","TLE_LINE1":"1 52865U 22062AM  22253.91667824 -.00068976  00000-0 -43552-2 0  9994","CENTER_NAME":"EARTH","PERIOD":"95.436","BSTAR":"-0.00435520000000","MEAN_MOTION":"15.08860388","COUNTRY_CODE":"US","MEAN_ANOMALY":"194.2537","OBJECT_NAME":"STARLINK-4274","RA_OF_ASC_NODE":"351.2737","EPOCH":"2022-09-10T22:00:00.999936","SEMIMAJOR_AXIS":"6917.818","FILE":"3567584","PERIAPSIS":"538.564","EPHEMERIS_TYPE":"0","ECCENTRICITY":"0.00016180","RCS_SIZE":"LARGE","MEAN_ELEMENT_THEORY":"SGP4","OBJECT_TYPE":"PAYLOAD","MEAN_MOTION_DOT":"-0.00068976","INCLINATION":"53.2199","ELEMENT_SET_NO":"999","APOAPSIS":"540.802","DECAY_DATE":null,"REF_FRAME":"TEME","TLE_LINE2":"2 52865  53.2199 351.2737 0001618  51.0641 194.2537 15.08860388 13820","TIME_SYSTEM":"UTC","CLASSIFICATION_TYPE":"U","OBJECT_ID":"2022-062AM","SITE":"AFETR","MEAN_MOTION_DDOT":"0.0000000000000","ARG_OF_PERICENTER":"51.0641","GP_ID":"212243043","LAUNCH_DATE":"2022-06-17"},{"FILE":"3567584","PERIAPSIS":"538.445","EPOCH":"2022-09-10T22:00:00.999936","SEMIMAJOR_AXIS":"6917.777","ECCENTRICITY":"0.00017310","RCS_SIZE":"LARGE","MEAN_ELEMENT_THEORY":"SGP4","EPHEMERIS_TYPE":"0","TLE_LINE1":"1 52866U 22062AN  22253.91667824 -.00063790  00000-0 -40219-2 0  9991","REV_AT_EPOCH":"1382","CENTER_NAME":"EARTH","BSTAR":"-0.00402190000000","PERIOD":"95.435","NORAD_CAT_ID":"52866","MEAN_MOTION":"15.08873802","COUNTRY_CODE":"US","MEAN_ANOMALY":"156.1872","RA_OF_ASC_NODE":"351.2733","OBJECT_NAME":"STARLINK-4272","CLASSIFICATION_TYPE":"U","SITE":"AFETR","OBJECT_ID":"2022-062AN","REF_FRAME":"TEME","TLE_LINE2":"2 52866  53.2169 351.2733 0001731  49.1138 156.1872 15.08873802 13823","TIME_SYSTEM":"UTC","MEAN_MOTION_DDOT":"0.0000000000000","GP_ID":"212243049","ARG_OF_PERICENTER":"49.1138","LAUNCH_DATE":"2022-06-17","MEAN_MOTION_DOT":"-0.00063790","INCLINATION":"53.2169","OBJECT_TYPE":"PAYLOAD","DECAY_DATE":null,"ELEMENT_SET_NO":"999","APOAPSIS":"540.840"},{"REF_FRAME":"TEME","TLE_LINE2":"2 52867  53.2213 351.2731 0002185  49.8007 235.5101 15.08857819 13825","TIME_SYSTEM":"UTC","CLASSIFICATION_TYPE":"U","OBJECT_ID":"2022-062AP","SITE":"AFETR","MEAN_MOTION_DDOT":"0.0000000000000","ARG_OF_PERICENTER":"49.8007","GP_ID":"212242547","LAUNCH_DATE":"2022-06-17","OBJECT_TYPE":"PAYLOAD","MEAN_MOTION_DOT":"-0.00037794","INCLINATION":"53.2213","ELEMENT_SET_NO":"999","APOAPSIS":"541.202","DECAY_DATE":null,"EPOCH":"2022-09-10T22:00:00.999936","SEMIMAJOR_AXIS":"6917.826","FILE":"3567584","PERIAPSIS":"538.179","EPHEMERIS_TYPE":"0","ECCENTRICITY":"0.00021850","RCS_SIZE":"LARGE","MEAN_ELEMENT_THEORY":"SGP4","NORAD_CAT_ID":"52867","REV_AT_EPOCH":"1382","TLE_LINE1":"1 52867U 22062AP  22253.91667824 -.00037794  00000-0 -23678-2 0  9997","CENTER_NAME":"EARTH","PERIOD":"95.436","BSTAR":"-0.00236780000000","MEAN_MOTION":"15.08857819","COUNTRY_CODE":"US","MEAN_ANOMALY":"235.5101","RA_OF_ASC_NODE":"351.2731","OBJECT_NAME":"STARLINK-4126"},{"MEAN_ANOMALY":"182.7549","COUNTRY_CODE":"US","RA_OF_ASC_NODE":"351.2737","OBJECT_NAME":"STARLINK-4261","MEAN_MOTION":"15.08855448","NORAD_CAT_ID":"52868","BSTAR":"-0.00409390000000","PERIOD":"95.437","TLE_LINE1":"1 52868U 22062AQ  22253.91667824 -.00064883  00000-0 -40939-2 0  9996","REV_AT_EPOCH":"1382","CENTER_NAME":"EARTH","EPHEMERIS_TYPE":"0","RCS_SIZE":"LARGE","MEAN_ELEMENT_THEORY":"SGP4","ECCENTRICITY":"0.00016340","EPOCH":"2022-09-10T22:00:00.999936","SEMIMAJOR_AXIS":"6917.833","PERIAPSIS":"538.568","FILE":"3567584","ELEMENT_SET_NO":"999","APOAPSIS":"540.829","DECAY_DATE":null,"OBJECT_TYPE":"PAYLOAD","MEAN_MOTION_DOT":"-0.00064883","INCLINATION":"53.2194","LAUNCH_DATE":"2022-06-17","MEAN_MOTION_DDOT":"0.0000000000000","ARG_OF_PERICENTER":"57.3929","GP_ID":"212243050","REF_FRAME":"TEME","TLE_LINE2":"2 52868  53.2194 351.2737 0001634  57.3929 182.7549 15.08855448 13820","TIME_SYSTEM":"UTC","OBJECT_ID":"2022-062AQ","SITE":"AFETR","CLASSIFICATION_TYPE":"U"},{"MEAN_MOTION_DOT":"-0.01058585","INCLINATION":"53.2174","OBJECT_TYPE":"PAYLOAD","DECAY_DATE":null,"ELEMENT_SET_NO":"999","APOAPSIS":"433.096","CLASSIFICATION_TYPE":"U","SITE":"AFETR","OBJECT_ID":"2022-062AR","REF_FRAME":"TEME","TLE_LINE2":"2 52869  53.2174 343.4423 0001325  47.6930 334.3091 15.44723043  1307","TIME_SYSTEM":"UTC","MEAN_MOTION_DDOT":"0.0000000000000","ARG_OF_PERICENTER":"47.6930","GP_ID":"212272309","LAUNCH_DATE":"2022-06-17","TLE_LINE1":"1 52869U 22062AR  22253.91667824 -.01058585  00000-0 -24604-1 0  9990","REV_AT_EPOCH":"130","CENTER_NAME":"EARTH","BSTAR":"-0.02460400000000","PERIOD":"93.221","NORAD_CAT_ID":"52869","MEAN_MOTION":"15.44723043","MEAN_ANOMALY":"334.3091","COUNTRY_CODE":"US","RA_OF_ASC_NODE":"343.4423","OBJECT_NAME":"STARLINK-4266","FILE":"3567798","PERIAPSIS":"431.292","EPOCH":"2022-09-10T22:00:00.999936","SEMIMAJOR_AXIS":"6810.329","ECCENTRICITY":"0.00013250","RCS_SIZE":"LARGE","MEAN_ELEMENT_THEORY":"SGP4","EPHEMERIS_TYPE":"0"},{"DECAY_DATE":null,"APOAPSIS":"540.860","ELEMENT_SET_NO":"999","INCLINATION":"53.2204","MEAN_MOTION_DOT":"-0.00066641","OBJECT_TYPE":"PAYLOAD","GP_ID":"212272049","ARG_OF_PERICENTER":"40.3658","MEAN_MOTION_DDOT":"0.0000000000000","LAUNCH_DATE":"2022-06-17","CLASSIFICATION_TYPE":"U","OBJECT_ID":"2022-062AS","SITE":"AFETR","TLE_LINE2":"2 52870  53.2204 351.2746 0001808  40.3658 224.9236 15.08884482  1301","TIME_SYSTEM":"UTC","REF_FRAME":"TEME","MEAN_MOTION":"15.08884482","OBJECT_NAME":"STARLINK-4195","RA_OF_ASC_NODE":"351.2746","MEAN_ANOMALY":"224.9236","COUNTRY_CODE":"US","CENTER_NAME":"EARTH","TLE_LINE1":"1 52870U 22062AS  22253.91667824 -.00066641  00000-0 -42029-2 0  9995","REV_AT_EPOCH":"130","BSTAR":"-0.00420290000000","PERIOD":"95.435","NORAD_CAT_ID":"52870","ECCENTRICITY":"0.00018080","MEAN_ELEMENT_THEORY":"SGP4","RCS_SIZE":"LARGE","EPHEMERIS_TYPE":"0","FILE":"3567798","PERIAPSIS":"538.359","SEMIMAJOR_AXIS":"6917.744","EPOCH":"2022-09-10T22:00:00.999936"},{"ECCENTRICITY":"0.00014470","RCS_SIZE":"LARGE","MEAN_ELEMENT_THEORY":"SGP4","EPHEMERIS_TYPE":"0","FILE":"3567798","PERIAPSIS":"428.607","SEMIMAJOR_AXIS":"6807.727","EPOCH":"2022-09-10T22:00:00.999936","MEAN_MOTION":"15.45608683","RA_OF_ASC_NODE":"343.4806","OBJECT_NAME":"STARLINK-4207","COUNTRY_CODE":"US","MEAN_ANOMALY":"349.8361","CENTER_NAME":"EARTH","REV_AT_EPOCH":"130","TLE_LINE1":"1 52871U 22062AT  22253.91667824 -.01058704  00000-0 -23867-1 0  9996","PERIOD":"93.167","BSTAR":"-0.02386700000000","NORAD_CAT_ID":"52871","ARG_OF_PERICENTER":"41.3103","GP_ID":"212271741","MEAN_MOTION_DDOT":"0.0000000000000","LAUNCH_DATE":"2022-06-17","CLASSIFICATION_TYPE":"U","OBJECT_ID":"2022-062AT","SITE":"AFETR","TIME_SYSTEM":"UTC","TLE_LINE2":"2 52871  53.2174 343.4806 0001447  41.3103 349.8361 15.45608683  1307","REF_FRAME":"TEME","DECAY_DATE":null,"APOAPSIS":"430.577","ELEMENT_SET_NO":"999","INCLINATION":"53.2174","MEAN_MOTION_DOT":"-0.01058704","OBJECT_TYPE":"PAYLOAD"}];
